ORBCOMM FM115           
1 41186U 15081H   25299.82171016  .00001044  00000+0  23683-3 0  9991
2 41186  46.9969 133.3884 0001215 289.3649  70.7106 14.62777239527042
ORBCOMM FM108           
1 41187U 15081J   25299.78735013  .00001531  00000+0  36314-3 0  9996
2 41187  47.0045 205.3734 0002340 212.1005 147.9738 14.58438470526003
ORBCOMM FM117           
1 41188U 15081K   25299.75363794  .00001463  00000+0  34866-3 0  9991
2 41188  47.0009 204.2518 0002985 220.6285 139.4378 14.58439386526048
ORBCOMM FM116           
1 41189U 15081L   25299.66756905  .00001266  00000+0  30615-3 0  9991
2 41189  47.0024 294.4493 0001465   9.5717 350.5196 14.58511622524849
